{"type":"FeatureCollection","attribution":"Trail lines © OpenStreetMap contributors, ODbL (openstreetmap.org/copyright). Extracted 2026-10-02.","features":[{"type":"Feature","properties":{"key":"mariang","name":"Mariang Makiling Trail","kind":"trail","lengthKm":8.8},"geometry":{"type":"LineString","coordinates":[[121.23376,14.15133],[121.23369,14.15122],[121.23364,14.15113],[121.23341,14.15076],[121.23305,14.15017],[121.23254,14.14919],[121.23216,14.1484],[121.23185,14.14814],[121.23127,14.14764],[121.23079,14.14709],[121.23062,14.14674],[121.23044,14.14656],[121.23022,14.14656],[121.23005,14.14658],[121.22996,14.14656],[121.2299,14.1465],[121.22992,14.14643],[121.23005,14.14636],[121.23026,14.14616],[121.23038,14.14594],[121.23042,14.14577],[121.23042,14.1455],[121.23041,14.1453],[121.23046,14.1452],[121.23059,14.14507],[121.2307,14.14494],[121.23076,14.14472],[121.23065,14.14446],[121.23056,14.14424],[121.23047,14.14409],[121.23042,14.144],[121.23045,14.14393],[121.23053,14.14388],[121.23064,14.14385],[121.23078,14.14388],[121.23097,14.14397],[121.23116,14.14404],[121.23142,14.1441],[121.23152,14.14414],[121.23165,14.14417],[121.23178,14.14413],[121.232,14.14397],[121.23226,14.14375],[121.2323,14.14355],[121.23225,14.14339],[121.23218,14.1432],[121.23215,14.14304],[121.2321,14.14292],[121.23197,14.14286],[121.2318,14.14281],[121.23164,14.14278],[121.23153,14.14271],[121.23136,14.1425],[121.23111,14.1423],[121.23082,14.1422],[121.23054,14.14196],[121.23025,14.14176],[121.23006,14.14158],[121.22978,14.14143],[121.22957,14.14128],[121.22943,14.14116],[121.22926,14.14094],[121.22923,14.14062],[121.22919,14.14032],[121.22912,14.14019],[121.22905,14.14007],[121.22905,14.13995],[121.22917,14.13981],[121.22931,14.13971],[121.22957,14.1397],[121.22986,14.13972],[121.23051,14.13976],[121.23081,14.13972],[121.23101,14.13969],[121.23107,14.13954],[121.23119,14.13935],[121.23126,14.13917],[121.23141,14.1391],[121.23162,14.13889],[121.23174,14.13877],[121.23182,14.13873],[121.23182,14.13867],[121.2318,14.1386],[121.23169,14.13853],[121.23123,14.13845],[121.23081,14.13839],[121.23045,14.13828],[121.23028,14.1382],[121.23019,14.13812],[121.23018,14.13801],[121.23029,14.13793],[121.2305,14.13787],[121.23061,14.13778],[121.23063,14.13761],[121.23064,14.13745],[121.23066,14.13719],[121.2306,14.13707],[121.23052,14.13702],[121.23033,14.13701],[121.2302,14.13705],[121.23001,14.13708],[121.22986,14.13708],[121.22965,14.13704],[121.2295,14.13699],[121.22941,14.13688],[121.2294,14.13678],[121.22949,14.13666],[121.22963,14.13646],[121.22968,14.13631],[121.22958,14.13615],[121.22944,14.13603],[121.22923,14.136],[121.22896,14.13591],[121.22877,14.13575],[121.2286,14.13558],[121.22851,14.1354],[121.22843,14.1353],[121.22827,14.13528],[121.22805,14.13534],[121.22774,14.13548],[121.22689,14.13582],[121.22648,14.13591],[121.22614,14.13591],[121.22573,14.1358],[121.22533,14.1356],[121.22505,14.13539],[121.22478,14.13515],[121.22446,14.13485],[121.22435,14.13464],[121.22423,14.13429],[121.22417,14.13406],[121.22411,14.13386],[121.22404,14.13378],[121.22382,14.13377],[121.22359,14.13387],[121.22339,14.13396],[121.22317,14.13395],[121.22276,14.13387],[121.22241,14.13383],[121.22212,14.13377],[121.22183,14.13365],[121.22164,14.13361],[121.22137,14.13346],[121.22106,14.13323],[121.22083,14.13304],[121.22059,14.13281],[121.22028,14.13264],[121.22008,14.13235],[121.21983,14.13199],[121.21964,14.13177],[121.21948,14.13164],[121.21916,14.13153],[121.2189,14.13131],[121.21856,14.1311],[121.21822,14.13094],[121.21779,14.13083],[121.21733,14.13075],[121.21705,14.13073],[121.21681,14.13076],[121.21657,14.1308],[121.21628,14.13079],[121.21598,14.13084],[121.21567,14.131],[121.21538,14.1311],[121.21493,14.13091],[121.21436,14.13066],[121.21376,14.13038],[121.21317,14.13013],[121.21252,14.1299],[121.2119,14.12963],[121.2111,14.1295],[121.21081,14.12942],[121.21039,14.12936],[121.21013,14.12925],[121.21,14.12905],[121.20975,14.12899],[121.20952,14.12927],[121.20953,14.12942],[121.2098,14.12972],[121.20983,14.12982],[121.2098,14.13002],[121.20959,14.13017],[121.20932,14.13026],[121.2093,14.13059],[121.20947,14.13084],[121.20948,14.13115],[121.20926,14.13133],[121.20894,14.13167],[121.20891,14.13212],[121.20863,14.13248],[121.20848,14.13282],[121.20868,14.13319],[121.20826,14.1336],[121.20792,14.13375],[121.20793,14.13412],[121.20815,14.13442],[121.2077,14.1351],[121.207,14.13506],[121.20688,14.13518],[121.20689,14.13559],[121.2065,14.13573],[121.2063,14.13594],[121.20601,14.13632],[121.20581,14.13666],[121.2058,14.13675],[121.2058,14.13706],[121.20578,14.13733],[121.20544,14.13748],[121.20538,14.1377],[121.2056,14.13805],[121.20537,14.13848],[121.20508,14.1386],[121.20459,14.13874],[121.20454,14.13879],[121.20438,14.13896],[121.20406,14.1388],[121.20365,14.1384],[121.20247,14.13705],[121.20239,14.13693],[121.20219,14.13694],[121.2021,14.13701],[121.20179,14.13692],[121.20105,14.13668],[121.20093,14.13677],[121.20102,14.1369],[121.20132,14.13734],[121.20181,14.13796],[121.20182,14.13823],[121.20154,14.13823],[121.20117,14.13814],[121.20095,14.1383],[121.20102,14.13852],[121.20046,14.13883],[121.20018,14.13891],[121.19967,14.13855],[121.19932,14.13844],[121.19923,14.13859],[121.19939,14.13901],[121.19931,14.1392],[121.19923,14.1394],[121.19904,14.13936],[121.19896,14.13897],[121.19887,14.13888],[121.19873,14.13872],[121.1985,14.13847],[121.19813,14.13846],[121.19786,14.13821],[121.19756,14.13775],[121.19718,14.13784],[121.19686,14.13805],[121.19664,14.13769],[121.19653,14.13713],[121.19641,14.13695],[121.19619,14.1366],[121.19606,14.13639],[121.19558,14.13606],[121.19551,14.13602],[121.19534,14.13592],[121.19516,14.13582],[121.19484,14.13567],[121.19455,14.13567],[121.19444,14.13581],[121.19422,14.13591],[121.19405,14.13585],[121.19387,14.13574]]}},{"type":"Feature","properties":{"key":"sipit","name":"Sipit Trail","kind":"trail","lengthKm":5.2},"geometry":{"type":"LineString","coordinates":[[121.18826,14.10642],[121.18828,14.10657],[121.18832,14.10666],[121.18829,14.10673],[121.18836,14.10679],[121.1884,14.10688],[121.18831,14.10696],[121.18822,14.10716],[121.18823,14.10724],[121.18816,14.10737],[121.18806,14.10749],[121.18793,14.10766],[121.18793,14.10774],[121.18784,14.1079],[121.18777,14.10795],[121.18777,14.10804],[121.18767,14.10809],[121.18762,14.10823],[121.18764,14.10837],[121.18759,14.10874],[121.18751,14.10896],[121.18745,14.1091],[121.18715,14.10947],[121.18693,14.10998],[121.18681,14.11039],[121.18685,14.11046],[121.18672,14.11063],[121.1867,14.11079],[121.18674,14.11091],[121.1868,14.11148],[121.18689,14.11188],[121.18705,14.11219],[121.18704,14.11238],[121.18713,14.11261],[121.18718,14.11274],[121.1871,14.11282],[121.18709,14.11304],[121.18711,14.1133],[121.18727,14.1134],[121.18723,14.11367],[121.1873,14.11383],[121.18722,14.11403],[121.18712,14.11401],[121.18692,14.11407],[121.18687,14.11427],[121.18676,14.11437],[121.18673,14.11447],[121.18663,14.11481],[121.18663,14.11511],[121.18655,14.11533],[121.18646,14.11538],[121.18636,14.11536],[121.18617,14.11548],[121.1861,14.11553],[121.18604,14.11563],[121.18605,14.11573],[121.18594,14.11593],[121.18592,14.11616],[121.18588,14.11623],[121.18598,14.11647],[121.18599,14.11653],[121.18593,14.11669],[121.18588,14.11675],[121.18591,14.11694],[121.18599,14.1172],[121.18595,14.11728],[121.18599,14.11733],[121.18596,14.11738],[121.18599,14.1175],[121.18597,14.11773],[121.18591,14.11801],[121.18593,14.1182],[121.18594,14.11834],[121.18589,14.11855],[121.18597,14.11865],[121.18602,14.11876],[121.18605,14.11886],[121.18615,14.119],[121.18624,14.11926],[121.18627,14.11938],[121.18625,14.1194],[121.1862,14.11946],[121.18608,14.11946],[121.18606,14.11964],[121.1858,14.11966],[121.18576,14.11977],[121.18571,14.11985],[121.18564,14.11998],[121.18568,14.12003],[121.18545,14.12],[121.18527,14.12005],[121.18486,14.11997],[121.18473,14.11995],[121.18446,14.11987],[121.18432,14.11987],[121.18429,14.11992],[121.18429,14.11999],[121.1842,14.11994],[121.18399,14.11988],[121.18382,14.11991],[121.18372,14.11994],[121.18364,14.11995],[121.18353,14.12],[121.18348,14.12002],[121.18335,14.12013],[121.18328,14.12028],[121.18328,14.12037],[121.18319,14.12051],[121.18322,14.1206],[121.18318,14.12067],[121.18311,14.12071],[121.18303,14.12076],[121.18305,14.12087],[121.18281,14.12097],[121.18277,14.12103],[121.18277,14.12103],[121.18282,14.12105],[121.1829,14.12117],[121.18304,14.12131],[121.18315,14.12144],[121.18335,14.12151],[121.18359,14.12168],[121.18373,14.12167],[121.18403,14.12177],[121.18411,14.12175],[121.18413,14.12178],[121.18419,14.1219],[121.18425,14.12198],[121.18432,14.12208],[121.18431,14.12223],[121.18433,14.12234],[121.18435,14.12247],[121.18444,14.1226],[121.18436,14.12287],[121.18429,14.12315],[121.18432,14.12351],[121.18441,14.1239],[121.18447,14.12401],[121.18445,14.12416],[121.18436,14.12428],[121.18438,14.12446],[121.18443,14.12462],[121.18481,14.12509],[121.18491,14.12521],[121.18499,14.12523],[121.18511,14.12532],[121.18523,14.12541],[121.18533,14.12552],[121.18536,14.12566],[121.18543,14.12575],[121.1855,14.12586],[121.18557,14.12601],[121.18565,14.12608],[121.18566,14.12617],[121.18578,14.1263],[121.18589,14.12642],[121.18603,14.12662],[121.18607,14.12671],[121.18624,14.12684],[121.18638,14.12701],[121.18663,14.12724],[121.18675,14.12736],[121.1868,14.12745],[121.18682,14.12762],[121.18688,14.12774],[121.18684,14.12784],[121.18687,14.12797],[121.18703,14.12818],[121.18698,14.12831],[121.18702,14.12847],[121.18699,14.12855],[121.1869,14.12858],[121.18689,14.12873],[121.18705,14.12878],[121.1871,14.12906],[121.18725,14.12915],[121.1873,14.12927],[121.18721,14.12944],[121.18703,14.12983],[121.18693,14.12989],[121.18687,14.12994],[121.18681,14.13003],[121.18672,14.12999],[121.18663,14.12987],[121.18651,14.1299],[121.18635,14.13003],[121.18625,14.13006],[121.18605,14.13014],[121.18587,14.13036],[121.18573,14.13042],[121.18558,14.13041],[121.1854,14.13046],[121.18518,14.13046],[121.18499,14.13049],[121.18485,14.13055],[121.18477,14.13079],[121.18469,14.13104],[121.18461,14.13111],[121.18457,14.13132],[121.18465,14.13141],[121.18467,14.13152],[121.18473,14.13161],[121.18461,14.13175],[121.18449,14.1317],[121.18436,14.13171],[121.18427,14.13178],[121.18412,14.13191],[121.18417,14.13202],[121.18421,14.13214],[121.18433,14.13233],[121.18453,14.13264],[121.18458,14.1328],[121.18465,14.13297],[121.18458,14.13314],[121.18466,14.13335],[121.18471,14.1335],[121.18462,14.13365],[121.18461,14.13381],[121.18474,14.13392],[121.18498,14.13409],[121.18539,14.13435],[121.18584,14.1342],[121.18612,14.13413],[121.18642,14.13423],[121.18673,14.13431],[121.18704,14.13427],[121.18738,14.13431],[121.18754,14.13431],[121.1878,14.13427],[121.18812,14.13434],[121.18826,14.13461],[121.18842,14.13473],[121.1886,14.13464],[121.1887,14.13454],[121.18889,14.13453],[121.18895,14.13464],[121.18917,14.13472],[121.18944,14.13489],[121.18973,14.13491],[121.18988,14.13498],[121.19011,14.13497],[121.19022,14.13504],[121.19034,14.13503],[121.19041,14.13492],[121.19048,14.13485],[121.19055,14.13492],[121.19061,14.13502],[121.19069,14.13506],[121.19084,14.13509],[121.19097,14.13509],[121.19108,14.1351],[121.19126,14.13522],[121.19143,14.13531],[121.19161,14.13529],[121.19175,14.13535],[121.19189,14.13541],[121.19206,14.13549],[121.19225,14.13547],[121.19251,14.13547],[121.19277,14.13549],[121.19292,14.13554],[121.19319,14.13568],[121.19348,14.13578],[121.19371,14.13571],[121.19387,14.13574]]}},{"type":"Feature","properties":{"key":"traverse","name":"Makiling Traverse (MakTrav)","kind":"trail","lengthKm":15},"geometry":{"type":"LineString","coordinates":[[121.1657,14.1091],[121.16576,14.10915],[121.16595,14.10926],[121.1662,14.10943],[121.16629,14.10945],[121.16638,14.1095],[121.16647,14.10952],[121.16661,14.10954],[121.1667,14.10953],[121.16693,14.1096],[121.16706,14.10965],[121.1672,14.10969],[121.16735,14.10973],[121.1675,14.10977],[121.16758,14.1098],[121.16781,14.10991],[121.16794,14.10997],[121.16812,14.11005],[121.1683,14.11012],[121.16845,14.11019],[121.16853,14.11022],[121.16862,14.11026],[121.16887,14.11037],[121.16889,14.11038],[121.16904,14.11044],[121.16912,14.11047],[121.1693,14.11057],[121.16938,14.11062],[121.16949,14.11072],[121.16958,14.11081],[121.16971,14.11094],[121.16985,14.11108],[121.16993,14.11117],[121.17003,14.11127],[121.1701,14.11133],[121.17021,14.11142],[121.1703,14.11148],[121.17041,14.11154],[121.17052,14.11164],[121.17063,14.11176],[121.17067,14.11183],[121.17072,14.11194],[121.17077,14.11209],[121.17084,14.11219],[121.1709,14.11225],[121.17107,14.11241],[121.17127,14.11267],[121.17126,14.1128],[121.17126,14.11293],[121.17131,14.113],[121.17137,14.11305],[121.17146,14.11311],[121.17159,14.11319],[121.17172,14.11327],[121.17183,14.11333],[121.17204,14.11342],[121.1722,14.11342],[121.17233,14.11335],[121.1724,14.11323],[121.17245,14.11314],[121.1725,14.1131],[121.17258,14.11309],[121.17267,14.11313],[121.17291,14.11324],[121.17306,14.11329],[121.17314,14.1133],[121.17327,14.11335],[121.17337,14.11342],[121.17342,14.11346],[121.17347,14.11355],[121.17358,14.11365],[121.17366,14.11372],[121.1738,14.11382],[121.17394,14.11391],[121.17405,14.11401],[121.17411,14.11409],[121.17414,14.11415],[121.17416,14.1142],[121.17414,14.11455],[121.17415,14.11466],[121.17412,14.11493],[121.17417,14.11516],[121.17417,14.11523],[121.17417,14.11529],[121.17408,14.1154],[121.17395,14.11565],[121.17391,14.11588],[121.17395,14.11601],[121.17401,14.11613],[121.17399,14.11622],[121.17402,14.11632],[121.17414,14.11642],[121.17428,14.11654],[121.17428,14.1166],[121.1743,14.11679],[121.17453,14.11688],[121.17465,14.11698],[121.17464,14.11706],[121.17467,14.11718],[121.17462,14.11723],[121.17468,14.1173],[121.17476,14.11734],[121.17492,14.11748],[121.17509,14.11756],[121.17522,14.11768],[121.17525,14.11774],[121.17524,14.11789],[121.17532,14.118],[121.17543,14.11812],[121.17544,14.1182],[121.17537,14.11832],[121.17539,14.11843],[121.17553,14.11849],[121.17566,14.11852],[121.17586,14.11871],[121.17586,14.11878],[121.17591,14.11883],[121.17602,14.11889],[121.17611,14.11908],[121.1762,14.1192],[121.17643,14.11934],[121.17676,14.11952],[121.17709,14.11955],[121.17717,14.11955],[121.17723,14.11962],[121.17732,14.11962],[121.17743,14.1197],[121.17741,14.11982],[121.1775,14.11995],[121.17756,14.11998],[121.17762,14.12004],[121.17762,14.12011],[121.17768,14.12022],[121.17784,14.12054],[121.17786,14.12069],[121.17793,14.12074],[121.178,14.1207],[121.17804,14.12064],[121.17813,14.12067],[121.17818,14.12075],[121.17827,14.12092],[121.17827,14.12103],[121.17835,14.1211],[121.17839,14.1213],[121.17848,14.12145],[121.1785,14.12153],[121.17865,14.12178],[121.1787,14.12178],[121.17882,14.1219],[121.17906,14.12226],[121.17914,14.12243],[121.17923,14.12253],[121.17934,14.12263],[121.1794,14.12271],[121.17945,14.12273],[121.17951,14.12279],[121.17953,14.12289],[121.17967,14.12299],[121.17984,14.12314],[121.17988,14.12329],[121.18,14.12337],[121.18012,14.12338],[121.18017,14.1234],[121.18024,14.12338],[121.1803,14.12341],[121.18045,14.12338],[121.18058,14.12334],[121.18068,14.12338],[121.18072,14.12346],[121.1808,14.12346],[121.18088,14.12336],[121.18099,14.12324],[121.18101,14.12312],[121.18109,14.12314],[121.18127,14.12316],[121.18144,14.12311],[121.18166,14.12309],[121.18208,14.12302],[121.18205,14.12294],[121.18216,14.12247],[121.18215,14.12241],[121.18219,14.12232],[121.18241,14.12222],[121.18252,14.12224],[121.18257,14.12229],[121.18267,14.12232],[121.18286,14.12223],[121.18279,14.1221],[121.1827,14.12201],[121.18265,14.1218],[121.18261,14.12178],[121.18256,14.12164],[121.1826,14.12151],[121.18245,14.12129],[121.18239,14.12116],[121.18236,14.12106],[121.18241,14.12103],[121.18256,14.12099],[121.18267,14.12098],[121.18277,14.12103],[121.18282,14.12105],[121.1829,14.12117],[121.18304,14.12131],[121.18315,14.12144],[121.18335,14.12151],[121.18359,14.12168],[121.18373,14.12167],[121.18403,14.12177],[121.18411,14.12175],[121.18413,14.12178],[121.18419,14.1219],[121.18425,14.12198],[121.18432,14.12208],[121.18431,14.12223],[121.18433,14.12234],[121.18435,14.12247],[121.18444,14.1226],[121.18436,14.12287],[121.18429,14.12315],[121.18432,14.12351],[121.18441,14.1239],[121.18447,14.12401],[121.18445,14.12416],[121.18436,14.12428],[121.18438,14.12446],[121.18443,14.12462],[121.18481,14.12509],[121.18491,14.12521],[121.18499,14.12523],[121.18511,14.12532],[121.18523,14.12541],[121.18533,14.12552],[121.18536,14.12566],[121.18543,14.12575],[121.1855,14.12586],[121.18557,14.12601],[121.18565,14.12608],[121.18566,14.12617],[121.18578,14.1263],[121.18589,14.12642],[121.18603,14.12662],[121.18607,14.12671],[121.18624,14.12684],[121.18638,14.12701],[121.18663,14.12724],[121.18675,14.12736],[121.1868,14.12745],[121.18682,14.12762],[121.18688,14.12774],[121.18684,14.12784],[121.18687,14.12797],[121.18703,14.12818],[121.18698,14.12831],[121.18702,14.12847],[121.18699,14.12855],[121.1869,14.12858],[121.18689,14.12873],[121.18705,14.12878],[121.1871,14.12906],[121.18725,14.12915],[121.1873,14.12927],[121.18721,14.12944],[121.18703,14.12983],[121.18693,14.12989],[121.18687,14.12994],[121.18681,14.13003],[121.18672,14.12999],[121.18663,14.12987],[121.18651,14.1299],[121.18635,14.13003],[121.18625,14.13006],[121.18605,14.13014],[121.18587,14.13036],[121.18573,14.13042],[121.18558,14.13041],[121.1854,14.13046],[121.18518,14.13046],[121.18499,14.13049],[121.18485,14.13055],[121.18477,14.13079],[121.18469,14.13104],[121.18461,14.13111],[121.18457,14.13132],[121.18465,14.13141],[121.18467,14.13152],[121.18473,14.13161],[121.18461,14.13175],[121.18449,14.1317],[121.18436,14.13171],[121.18427,14.13178],[121.18412,14.13191],[121.18417,14.13202],[121.18421,14.13214],[121.18433,14.13233],[121.18453,14.13264],[121.18458,14.1328],[121.18465,14.13297],[121.18458,14.13314],[121.18466,14.13335],[121.18471,14.1335],[121.18462,14.13365],[121.18461,14.13381],[121.18474,14.13392],[121.18498,14.13409],[121.18539,14.13435],[121.18584,14.1342],[121.18612,14.13413],[121.18642,14.13423],[121.18673,14.13431],[121.18704,14.13427],[121.18738,14.13431],[121.18754,14.13431],[121.1878,14.13427],[121.18812,14.13434],[121.18826,14.13461],[121.18842,14.13473],[121.1886,14.13464],[121.1887,14.13454],[121.18889,14.13453],[121.18895,14.13464],[121.18917,14.13472],[121.18944,14.13489],[121.18973,14.13491],[121.18988,14.13498],[121.19011,14.13497],[121.19022,14.13504],[121.19034,14.13503],[121.19041,14.13492],[121.19048,14.13485],[121.19055,14.13492],[121.19061,14.13502],[121.19069,14.13506],[121.19084,14.13509],[121.19097,14.13509],[121.19108,14.1351],[121.19126,14.13522],[121.19143,14.13531],[121.19161,14.13529],[121.19175,14.13535],[121.19189,14.13541],[121.19206,14.13549],[121.19225,14.13547],[121.19251,14.13547],[121.19277,14.13549],[121.19292,14.13554],[121.19319,14.13568],[121.19348,14.13578],[121.19371,14.13571],[121.19387,14.13574],[121.19405,14.13585],[121.19422,14.13591],[121.19444,14.13581],[121.19455,14.13567],[121.19484,14.13567],[121.19516,14.13582],[121.19534,14.13592],[121.19551,14.13602],[121.19558,14.13606],[121.19606,14.13639],[121.19619,14.1366],[121.19641,14.13695],[121.19653,14.13713],[121.19664,14.13769],[121.19686,14.13805],[121.19718,14.13784],[121.19756,14.13775],[121.19786,14.13821],[121.19813,14.13846],[121.1985,14.13847],[121.19873,14.13872],[121.19887,14.13888],[121.19896,14.13897],[121.19904,14.13936],[121.19923,14.1394],[121.19931,14.1392],[121.19939,14.13901],[121.19923,14.13859],[121.19932,14.13844],[121.19967,14.13855],[121.20018,14.13891],[121.20046,14.13883],[121.20102,14.13852],[121.20095,14.1383],[121.20117,14.13814],[121.20154,14.13823],[121.20182,14.13823],[121.20181,14.13796],[121.20132,14.13734],[121.20102,14.1369],[121.20093,14.13677],[121.20105,14.13668],[121.20179,14.13692],[121.2021,14.13701],[121.20219,14.13694],[121.20239,14.13693],[121.20247,14.13705],[121.20365,14.1384],[121.20406,14.1388],[121.20438,14.13896],[121.20454,14.13879],[121.20459,14.13874],[121.20508,14.1386],[121.20537,14.13848],[121.2056,14.13805],[121.20538,14.1377],[121.20544,14.13748],[121.20578,14.13733],[121.2058,14.13706],[121.2058,14.13675],[121.20581,14.13666],[121.20601,14.13632],[121.2063,14.13594],[121.2065,14.13573],[121.20689,14.13559],[121.20688,14.13518],[121.207,14.13506],[121.2077,14.1351],[121.20815,14.13442],[121.20793,14.13412],[121.20792,14.13375],[121.20826,14.1336],[121.20868,14.13319],[121.20848,14.13282],[121.20863,14.13248],[121.20891,14.13212],[121.20894,14.13167],[121.20926,14.13133],[121.20948,14.13115],[121.20947,14.13084],[121.2093,14.13059],[121.20932,14.13026],[121.20959,14.13017],[121.2098,14.13002],[121.20983,14.12982],[121.2098,14.12972],[121.20953,14.12942],[121.20952,14.12927],[121.20975,14.12899],[121.21,14.12905],[121.21013,14.12925],[121.21039,14.12936],[121.21081,14.12942],[121.2111,14.1295],[121.2119,14.12963],[121.21252,14.1299],[121.21317,14.13013],[121.21376,14.13038],[121.21436,14.13066],[121.21493,14.13091],[121.21538,14.1311],[121.21567,14.131],[121.21598,14.13084],[121.21628,14.13079],[121.21657,14.1308],[121.21681,14.13076],[121.21705,14.13073],[121.21733,14.13075],[121.21779,14.13083],[121.21822,14.13094],[121.21856,14.1311],[121.2189,14.13131],[121.21916,14.13153],[121.21948,14.13164],[121.21964,14.13177],[121.21983,14.13199],[121.22008,14.13235],[121.22028,14.13264],[121.22059,14.13281],[121.22083,14.13304],[121.22106,14.13323],[121.22137,14.13346],[121.22164,14.13361],[121.22183,14.13365],[121.22212,14.13377],[121.22241,14.13383],[121.22276,14.13387],[121.22317,14.13395],[121.22339,14.13396],[121.22359,14.13387],[121.22382,14.13377],[121.22404,14.13378],[121.22411,14.13386],[121.22417,14.13406],[121.22423,14.13429],[121.22435,14.13464],[121.22446,14.13485],[121.22478,14.13515],[121.22505,14.13539],[121.22533,14.1356],[121.22573,14.1358],[121.22614,14.13591],[121.22648,14.13591],[121.22689,14.13582],[121.22774,14.13548],[121.22805,14.13534],[121.22827,14.13528],[121.22843,14.1353],[121.22851,14.1354],[121.2286,14.13558],[121.22877,14.13575],[121.22896,14.13591],[121.22923,14.136],[121.22944,14.13603],[121.22958,14.13615],[121.22968,14.13631],[121.22963,14.13646],[121.22949,14.13666],[121.2294,14.13678],[121.22941,14.13688],[121.2295,14.13699],[121.22965,14.13704],[121.22986,14.13708],[121.23001,14.13708],[121.2302,14.13705],[121.23033,14.13701],[121.23052,14.13702],[121.2306,14.13707],[121.23066,14.13719],[121.23064,14.13745],[121.23063,14.13761],[121.23061,14.13778],[121.2305,14.13787],[121.23029,14.13793],[121.23018,14.13801],[121.23019,14.13812],[121.23028,14.1382],[121.23045,14.13828],[121.23081,14.13839],[121.23123,14.13845],[121.23169,14.13853],[121.2318,14.1386],[121.23182,14.13867],[121.23182,14.13873],[121.23174,14.13877],[121.23162,14.13889],[121.23141,14.1391],[121.23126,14.13917],[121.23119,14.13935],[121.23107,14.13954],[121.23101,14.13969],[121.23081,14.13972],[121.23051,14.13976],[121.22986,14.13972],[121.22957,14.1397],[121.22931,14.13971],[121.22917,14.13981],[121.22905,14.13995],[121.22905,14.14007],[121.22912,14.14019],[121.22919,14.14032],[121.22923,14.14062],[121.22926,14.14094],[121.22943,14.14116],[121.22957,14.14128],[121.22978,14.14143],[121.23006,14.14158],[121.23025,14.14176],[121.23054,14.14196],[121.23082,14.1422],[121.23111,14.1423],[121.23136,14.1425],[121.23153,14.14271],[121.23164,14.14278],[121.2318,14.14281],[121.23197,14.14286],[121.2321,14.14292],[121.23215,14.14304],[121.23218,14.1432],[121.23225,14.14339],[121.2323,14.14355],[121.23226,14.14375],[121.232,14.14397],[121.23178,14.14413],[121.23165,14.14417],[121.23152,14.14414],[121.23142,14.1441],[121.23116,14.14404],[121.23097,14.14397],[121.23078,14.14388],[121.23064,14.14385],[121.23053,14.14388],[121.23045,14.14393],[121.23042,14.144],[121.23047,14.14409],[121.23056,14.14424],[121.23065,14.14446],[121.23076,14.14472],[121.2307,14.14494],[121.23059,14.14507],[121.23046,14.1452],[121.23041,14.1453],[121.23042,14.1455],[121.23042,14.14577],[121.23038,14.14594],[121.23026,14.14616],[121.23005,14.14636],[121.22992,14.14643],[121.2299,14.1465],[121.22996,14.14656],[121.23005,14.14658],[121.23022,14.14656],[121.23044,14.14656],[121.23062,14.14674],[121.23079,14.14709],[121.23127,14.14764],[121.23185,14.14814],[121.23216,14.1484],[121.23254,14.14919],[121.23305,14.15017],[121.23341,14.15076],[121.23364,14.15113],[121.23369,14.15122],[121.23376,14.15133]]}},{"type":"Feature","properties":{"key":"mudspring","name":"Mud Spring side trail","kind":"side","lengthKm":0.6},"geometry":{"type":"LineString","coordinates":[[121.22573,14.1358],[121.22551,14.13589],[121.22535,14.13598],[121.2249,14.13611],[121.22465,14.13614],[121.22453,14.1363],[121.22418,14.13651],[121.2237,14.13668],[121.22344,14.13671],[121.22292,14.13665],[121.22268,14.1366],[121.22259,14.13663],[121.2225,14.13701],[121.22238,14.13724],[121.22217,14.13731],[121.22172,14.13723],[121.22154,14.13709],[121.22137,14.13687],[121.22118,14.13663]]}},{"type":"Feature","properties":{"key":"flatrocks","name":"Flat Rocks Eco-trail","kind":"side","lengthKm":0.5},"geometry":{"type":"LineString","coordinates":[[121.22818,14.14771],[121.22851,14.14781],[121.22875,14.14787],[121.22906,14.14782],[121.22936,14.14762],[121.22953,14.14743],[121.22977,14.14724],[121.23004,14.14709],[121.23033,14.14709],[121.23061,14.14727],[121.2308,14.14745],[121.23104,14.1477],[121.23138,14.14794],[121.23165,14.14803],[121.23185,14.14814]]}},{"type":"Feature","properties":{"key":"peak2","name":"Peak 2","kind":"peak","elevation":"1,090 MASL"},"geometry":{"type":"Point","coordinates":[121.19387,14.13574]}}]}